ONEWEB-0136             
1 47282U 20100AA  25095.89517226 -.00000370  00000+0 -10653-2 0  9995
2 47282  87.8823  77.6533 0001555  74.7076 285.4224 13.12442251207303
ONEWEB-0137             
1 47283U 20100AB  25095.24310672  .00000473  00000+0  12793-2 0  9990
2 47283  87.8817  77.7949 0001833  91.8491 268.2847 13.12443620207120
ONEWEB-0138             
1 47284U 20100AC  25095.45072988 -.00000110  00000+0 -34134-3 0  9993
2 47284  87.8818  77.7651 0001826  84.8246 275.3091 13.12443578207238
ONEWEB-0139             
1 47285U 20100AD  25095.87099454  .00000164  00000+0  42166-3 0  9998
2 47285  87.8825  77.6678 0001920  85.7317 274.4031 13.12442624207368
ONEWEB-0140             
1 47286U 20100AE  25095.67294872 -.00000321  00000+0 -92907-3 0  9993
2 47286  87.8819  77.6973 0001857  82.8326 277.3013 13.12443724207293
ONEWEB-0141             
1 47287U 20100AF  25094.65090839  .00000077  00000+0  17906-3 0  9990
2 47287  87.8818  77.9179 0001822  97.3774 262.7562 13.12442103207156
ONEWEB-0142             
1 47288U 20100AG  25095.25002315  .00195730  00000+0  53472+0 0  9995
2 47288  87.8826  77.7895 0001793  91.9576 268.7133 13.12169682207222
ONEWEB-0143             
1 47289U 20100AH  25095.18308941  .00000196  00000+0  51037-3 0  9992
2 47289  87.8819  77.8158 0001898  86.0796 274.0549 13.12441148207190
